{
    "links": {
        "self": "http://www.neowsapp.com/rest/v1/neo/54054654?api_key=iIulBulltgU6a56xZRHN4H3l9WmuAYTsLGpBGhQ2"
    },
    "id": "54054654",
    "neo_reference_id": "54054654",
    "name": "(2020 SD5)",
    "designation": "2020 SD5",
    "nasa_jpl_url": "http://ssd.jpl.nasa.gov/sbdb.cgi?sstr=54054654",
    "absolute_magnitude_h": 25.728,
    "estimated_diameter": {
        "kilometers": {
            "estimated_diameter_min": 0.019008812,
            "estimated_diameter_max": 0.0425049959
        },
        "meters": {
            "estimated_diameter_min": 19.0088120498,
            "estimated_diameter_max": 42.504995915
        },
        "miles": {
            "estimated_diameter_min": 0.0118115246,
            "estimated_diameter_max": 0.0264113718
        },
        "feet": {
            "estimated_diameter_min": 62.3648709256,
            "estimated_diameter_max": 139.4520907977
        }
    },
    "is_potentially_hazardous_asteroid": false,
    "close_approach_data": [
        {
            "close_approach_date": "2020-09-16",
            "close_approach_date_full": "2020-Sep-16 08:57",
            "epoch_date_close_approach": 1600246620000,
            "relative_velocity": {
                "kilometers_per_second": "8.5443413162",
                "kilometers_per_hour": "30759.628738327",
                "miles_per_hour": "19112.8370902121"
            },
            "miss_distance": {
                "astronomical": "0.0521492926",
                "lunar": "20.2860748214",
                "kilometers": "7801423.094966762",
                "miles": "4847579.5259628356"
            },
            "orbiting_body": "Earth"
        }
    ],
    "orbital_data": {
        "orbit_id": "2",
        "orbit_determination_date": "2020-09-27 06:55:31",
        "first_observation_date": "2020-09-24",
        "last_observation_date": "2020-09-27",
        "data_arc_in_days": 3,
        "observations_used": 23,
        "orbit_uncertainty": "8",
        "minimum_orbit_intersection": ".0488999",
        "jupiter_tisserand_invariant": "3.724",
        "epoch_osculation": "2459117.5",
        "eccentricity": ".4656997544008105",
        "semi_major_axis": "1.959462353044028",
        "inclination": "10.4049703342754",
        "ascending_node_longitude": "176.5087978426725",
        "orbital_period": "1001.852560844802",
        "perihelion_distance": "1.04694121647379",
        "perihelion_argument": "164.9081491435151",
        "aphelion_distance": "2.871983489614267",
        "perihelion_time": "2459098.681899723919",
        "mean_anomaly": "6.7619891031437",
        "mean_motion": ".3593343113246461",
        "equinox": "J2000",
        "orbit_class": {
            "orbit_class_type": "AMO",
            "orbit_class_description": "Near-Earth asteroid orbits similar to that of 1221 Amor",
            "orbit_class_range": "1.017 AU < q (perihelion) < 1.3 AU"
        }
    },
    "is_sentry_object": false
}